{"type": "FeatureCollection", "features": [ {"type": "Feature", "properties": {"norad_id": 32169, "name": "FENGYUN 1C DEB", "group": "fengyun-1c-debris", "lat": -77.70979143018076, "lon": -57.20850325022596, "alt_km": 686.9558992464508, "timestamp": "2025-12-04T05:42:43.658786+00:00", "meta": {"OBJECT_NAME": "FENGYUN 1C DEB", "OBJECT_ID": "1999-025CTP", "EPOCH": "2025-12-02T06:41:30.664032", "MEAN_MOTION": 14.66905242, "ECCENTRICITY": 0.0034102, "INCLINATION": 98.5596, "RA_OF_ASC_NODE": 164.4842, "ARG_OF_PERICENTER": 154.8135, "MEAN_ANOMALY": 205.474, "EPHEMERIS_TYPE": 0, "CLASSIFICATION_TYPE": "U", "NORAD_CAT_ID": 32169, "ELEMENT_SET_NO": 999, "REV_AT_EPOCH": 96465, "BSTAR": 0.0058344, "MEAN_MOTION_DOT": 0.00033005, "MEAN_MOTION_DDOT": 0}, "tle": {"line1": "1 32169U 99025CTP 25336.27882713  .00033005  00000+0  58344-2 0  9999", "line2": "2 32169  98.5596 164.4842 0034102 154.8135 205.4740 14.66905242964652"}}, "geometry": {"type": "Point", "coordinates": [-57.20850325022596, -77.70979143018076]}}, {"type": "Feature", "properties": {"norad_id": 32171, "name": "FENGYUN 1C DEB", "group": "fengyun-1c-debris", "lat": -59.65021029634745, "lon": 30.095311316863334, "alt_km": 1387.5056403618182, "timestamp": "2025-12-04T05:42:43.658796+00:00", "meta": {"OBJECT_NAME": "FENGYUN 1C DEB", "OBJECT_ID": "1999-025CTR", "EPOCH": "2025-11-30T22:04:53.153760", "MEAN_MOTION": 13.42391101, "ECCENTRICITY": 0.04876604, "INCLINATION": 102.8036, "RA_OF_ASC_NODE": 228.7362, "ARG_OF_PERICENTER": 31.3628, "MEAN_ANOMALY": 27.0117, "EPHEMERIS_TYPE": 0, "CLASSIFICATION_TYPE": "U", "NORAD_CAT_ID": 32171, "ELEMENT_SET_NO": 999, "REV_AT_EPOCH": 60457, "BSTAR": 0.0046651875, "MEAN_MOTION_DOT": 5.292e-05, "MEAN_MOTION_DDOT": 0}, "tle": {"line1": "1 32171U 99025CTR 25334.92005965  .00005292  00000+0  46652-2 0  9994", "line2": "2 32171 102.8036 228.7362 0487660  31.3628  27.0117 13.42391101604575"}}, "geometry": {"type": "Point", "coordinates": [30.095311316863334, -59.65021029634745]}}, {"type": "Feature", "properties": {"norad_id": 32174, "name": "FENGYUN 1C DEB", "group": "fengyun-1c-debris", "lat": -27.970975622265893, "lon": 45.25607261776242, "alt_km": 784.6227896878572, "timestamp": "2025-12-04T05:42:43.658806+00:00", "meta": {"OBJECT_NAME": "FENGYUN 1C DEB", "OBJECT_ID": "1999-025CTU", "EPOCH": "2025-11-24T10:25:59.655072", "MEAN_MOTION": 14.17883196, "ECCENTRICITY": 0.01501888, "INCLINATION": 98.6025, "RA_OF_ASC_NODE": 31.1449, "ARG_OF_PERICENTER": 298.935, "MEAN_ANOMALY": 59.6834, "EPHEMERIS_TYPE": 0, "CLASSIFICATION_TYPE": "U", "NORAD_CAT_ID": 32174, "ELEMENT_SET_NO": 999, "REV_AT_EPOCH": 63846, "BSTAR": 0.00027509636, "MEAN_MOTION_DOT": 5.84e-06, "MEAN_MOTION_DDOT": 0}, "tle": {"line1": "1 32174U 99025CTU 25328.43471823  .00000584  00000+0  27510-3 0  9998", "line2": "2 32174  98.6025  31.1449 0150188 298.9350  59.6834 14.17883196638460"}}, "geometry": {"type": "Point", "coordinates": [45.25607261776242, -27.970975622265893]}}, {"type": "Feature", "properties": {"norad_id": 32175, "name": "FENGYUN 1C DEB", "group": "fengyun-1c-debris", "lat": -25.83816005520416, "lon": 142.85777826007134, "alt_km": 1002.6200361854917, "timestamp": "2025-12-04T05:42:43.658816+00:00", "meta": {"OBJECT_NAME": "FENGYUN 1C DEB", "OBJECT_ID": "1999-025CTV", "EPOCH": "2025-11-30T18:04:30.432000", "MEAN_MOTION": 13.94645307, "ECCENTRICITY": 0.01526915, "INCLINATION": 98.8237, "RA_OF_ASC_NODE": 323.8389, "ARG_OF_PERICENTER": 355.8244, "MEAN_ANOMALY": 4.1634, "EPHEMERIS_TYPE": 0, "CLASSIFICATION_TYPE": "U", "NORAD_CAT_ID": 32175, "ELEMENT_SET_NO": 999, "REV_AT_EPOCH": 59673, "BSTAR": 0.0032372864, "MEAN_MOTION_DOT": 4.731e-05, "MEAN_MOTION_DDOT": 0}, "tle": {"line1": "1 32175U 99025CTV 25334.75313000  .00004731  00000+0  32373-2 0  9993", "line2": "2 32175  98.8237 323.8389 0152691 355.8244   4.1634 13.94645307596738"}}, "geometry": {"type": "Point", "coordinates": [142.85777826007134, -25.83816005520416]}}, {"type": "Feature", "properties": {"norad_id": 32177, "name": "FENGYUN 1C DEB", "group": "fengyun-1c-debris", "lat": -79.615160069894, "lon": 106.47381371523267, "alt_km": 749.1751806690945, "timestamp": "2025-12-04T05:42:43.658826+00:00", "meta": {"OBJECT_NAME": "FENGYUN 1C DEB", "OBJECT_ID": "1999-025CTX", "EPOCH": "2025-12-03T18:36:20.133792", "MEAN_MOTION": 14.56036202, "ECCENTRICITY": 0.00523267, "INCLINATION": 99.0442, "RA_OF_ASC_NODE": 346.332, "ARG_OF_PERICENTER": 71.8301, "MEAN_ANOMALY": 288.8582, "EPHEMERIS_TYPE": 0, "CLASSIFICATION_TYPE": "U", "NORAD_CAT_ID": 32177, "ELEMENT_SET_NO": 999, "REV_AT_EPOCH": 70908, "BSTAR": 0.0020691838, "MEAN_MOTION_DOT": 9.238e-05, "MEAN_MOTION_DDOT": 0}, "tle": {"line1": "1 32177U 99025CTX 25337.77523303  .00009238  00000+0  20692-2 0  9997", "line2": "2 32177  99.0442 346.3320 0052326  71.8301 288.8582 14.56036202709083"}}, "geometry": {"type": "Point", "coordinates": [106.47381371523267, -79.615160069894]}}, {"type": "Feature", "properties": {"norad_id": 32178, "name": "FENGYUN 1C DEB", "group": "fengyun-1c-debris", "lat": 50.991208640132434, "lon": -34.74118251189055, "alt_km": 781.7792786616665, "timestamp": "2025-12-04T05:42:43.658836+00:00", "meta": {"OBJECT_NAME": "FENGYUN 1C DEB", "OBJECT_ID": "1999-025CTY", "EPOCH": "2025-11-26T06:46:13.443456", "MEAN_MOTION": 14.22843314, "ECCENTRICITY": 0.00951304, "INCLINATION": 100.3039, "RA_OF_ASC_NODE": 328.9436, "ARG_OF_PERICENTER": 8.654, "MEAN_ANOMALY": 351.6247, "EPHEMERIS_TYPE": 0, "CLASSIFICATION_TYPE": "U", "NORAD_CAT_ID": 32178, "ELEMENT_SET_NO": 999, "REV_AT_EPOCH": 63769, "BSTAR": 0.0014846781, "MEAN_MOTION_DOT": 3.436e-05, "MEAN_MOTION_DDOT": 0}, "tle": {"line1": "1 32178U 99025CTY 25330.28210004  .00003436  00000+0  14847-2 0  9997", "line2": "2 32178 100.3039 328.9436 0095130   8.6540 351.6247 14.22843314637696"}}, "geometry": {"type": "Point", "coordinates": [-34.74118251189055, 50.991208640132434]}}, {"type": "Feature", "properties": {"norad_id": 32179, "name": "FENGYUN 1C DEB", "group": "fengyun-1c-debris", "lat": -59.78337425952407, "lon": 42.86343007897136, "alt_km": 878.390526028651, "timestamp": "2025-12-04T05:42:43.658846+00:00", "meta": {"OBJECT_NAME": "FENGYUN 1C DEB", "OBJECT_ID": "1999-025CTZ", "EPOCH": "2025-12-03T02:46:28.571808", "MEAN_MOTION": 14.0367335, "ECCENTRICITY": 0.01447713, "INCLINATION": 98.911, "RA_OF_ASC_NODE": 26.1355, "ARG_OF_PERICENTER": 216.7043, "MEAN_ANOMALY": 172.1012, "EPHEMERIS_TYPE": 0, "CLASSIFICATION_TYPE": "U", "NORAD_CAT_ID": 32179, "ELEMENT_SET_NO": 999, "REV_AT_EPOCH": 65593, "BSTAR": 0.00012219611, "MEAN_MOTION_DOT": 1.67e-06, "MEAN_MOTION_DDOT": 0}, "tle": {"line1": "1 32179U 99025CTZ 25337.11560847  .00000167  00000+0  12220-3 0  9992", "line2": "2 32179  98.9110  26.1355 0144771 216.7043 172.1012 14.03673350655935"}}, "geometry": {"type": "Point", "coordinates": [42.86343007897136, -59.78337425952407]}}, {"type": "Feature", "properties": {"norad_id": 32180, "name": "FENGYUN 1C DEB", "group": "fengyun-1c-debris", "lat": 29.901862393360737, "lon": -156.20648208770268, "alt_km": 941.2041473423378, "timestamp": "2025-12-04T05:42:43.658856+00:00", "meta": {"OBJECT_NAME": "FENGYUN 1C DEB", "OBJECT_ID": "1999-025CUA", "EPOCH": "2025-12-03T08:26:42.056160", "MEAN_MOTION": 13.82323819, "ECCENTRICITY": 0.0136039, "INCLINATION": 99.5871, "RA_OF_ASC_NODE": 17.3149, "ARG_OF_PERICENTER": 235.2648, "MEAN_ANOMALY": 188.4444, "EPHEMERIS_TYPE": 0, "CLASSIFICATION_TYPE": "U", "NORAD_CAT_ID": 32180, "ELEMENT_SET_NO": 999, "REV_AT_EPOCH": 94138, "BSTAR": 0.0001578, "MEAN_MOTION_DOT": 1.36e-06, "MEAN_MOTION_DDOT": 0}, "tle": {"line1": "1 32180U 99025CUA 25337.35187565  .00000136  00000+0  15780-3 0  9992", "line2": "2 32180  99.5871  17.3149 0136039 235.2648 188.4444 13.82323819941380"}}, "geometry": {"type": "Point", "coordinates": [-156.20648208770268, 29.901862393360737]}}, {"type": "Feature", "properties": {"norad_id": 32181, "name": "FENGYUN 1C DEB", "group": "fengyun-1c-debris", "lat": -13.58443552454458, "lon": 83.19057371977233, "alt_km": 740.2490309783443, "timestamp": "2025-12-04T05:42:43.658866+00:00", "meta": {"OBJECT_NAME": "FENGYUN 1C DEB", "OBJECT_ID": "1999-025CUB", "EPOCH": "2025-11-30T18:20:52.902816", "MEAN_MOTION": 14.5587127, "ECCENTRICITY": 0.00742263, "INCLINATION": 99.4729, "RA_OF_ASC_NODE": 76.9403, "ARG_OF_PERICENTER": 120.9158, "MEAN_ANOMALY": 31.1571, "EPHEMERIS_TYPE": 0, "CLASSIFICATION_TYPE": "U", "NORAD_CAT_ID": 32181, "ELEMENT_SET_NO": 999, "REV_AT_EPOCH": 96546, "BSTAR": 0.0011280546, "MEAN_MOTION_DOT": 5.08e-05, "MEAN_MOTION_DDOT": 0}, "tle": {"line1": "1 32181U 99025CUB 25334.76450119  .00005080  00000+0  11281-2 0  9997", "line2": "2 32181  99.4729  76.9403 0074226 120.9158  31.1571 14.55871270965461"}}, "geometry": {"type": "Point", "coordinates": [83.19057371977233, -13.58443552454458]}}, {"type": "Feature", "properties": {"norad_id": 32183, "name": "FENGYUN 1C DEB", "group": "fengyun-1c-debris", "lat": 53.954614995365496, "lon": -138.1264289025013, "alt_km": 830.135442384526, "timestamp": "2025-12-04T05:42:43.658876+00:00", "meta": {"OBJECT_NAME": "FENGYUN 1C DEB", "OBJECT_ID": "1999-025CUD", "EPOCH": "2025-12-02T20:46:03.470880", "MEAN_MOTION": 14.1004773, "ECCENTRICITY": 0.00432965, "INCLINATION": 98.7142, "RA_OF_ASC_NODE": 28.3779, "ARG_OF_PERICENTER": 88.5408, "MEAN_ANOMALY": 272.0723, "EPHEMERIS_TYPE": 0, "CLASSIFICATION_TYPE": "U", "NORAD_CAT_ID": 32183, "ELEMENT_SET_NO": 999, "REV_AT_EPOCH": 72625, "BSTAR": 0.00090671194, "MEAN_MOTION_DOT": 1.573e-05, "MEAN_MOTION_DDOT": 0}, "tle": {"line1": "1 32183U 99025CUD 25336.86531795  .00001573  00000+0  90671-3 0  9996", "line2": "2 32183  98.7142  28.3779 0043296  88.5408 272.0723 14.10047730726255"}}, "geometry": {"type": "Point", "coordinates": [-138.1264289025013, 53.954614995365496]}}]}